OBJECT_NAME,OBJECT_ID,EPOCH,MEAN_MOTION,ECCENTRICITY,INCLINATION,RA_OF_ASC_NODE,ARG_OF_PERICENTER,MEAN_ANOMALY,EPHEMERIS_TYPE,CLASSIFICATION_TYPE,NORAD_CAT_ID,ELEMENT_SET_NO,REV_AT_EPOCH,BSTAR,MEAN_MOTION_DOT,MEAN_MOTION_DDOT
OSCAR 7 (AO-7),1974-089B,2026-07-06T15:02:06.175968,12.53698401,.0012666,101.9900,201.0755,94.1905,25.1284,0,U,7530,999,36295,-.13258E-4,-.48E-6,0
PHASE 3B (AO-10),1983-058B,2026-07-06T07:21:12.524544,2.05868973,.6004451,25.9287,216.4111,120.9204,311.3694,0,U,14129,999,29588,0,.24E-5,0
UOSAT 2 (UO-11),1984-021B,2026-07-06T16:27:45.019008,14.90834297,.000907,97.8068,153.0444,114.7620,245.4542,0,U,14781,999,26003,.12522E-3,.1177E-4,0
LUSAT (LO-19),1990-005G,2026-07-06T13:51:47.513664,14.34128987,.0012194,98.8845,209.9170,144.9529,215.2460,0,U,20442,999,90517,.51049E-4,.96E-6,0
EYESAT A (AO-27),1993-061C,2026-07-06T17:14:26.481120,14.30947534,.0009183,98.6872,255.1240,48.9573,311.2402,0,U,22825,999,70979,.47026E-4,.79E-6,0
ITAMSAT (IO-26),1993-061D,2026-07-06T16:36:24.054912,14.31375033,.0009437,98.6820,255.0170,33.2338,326.9435,0,U,22826,999,71010,.50471E-4,.89E-6,0
RADIO ROSTO (RS15),1994-085A,2026-07-06T15:03:42.988896,11.27583521,.0156605,64.8173,271.7768,0.2869,359.8119,0,U,23439,999,29809,.88993E-4,-.39E-6,0
JAS-2 (FO-29),1996-046B,2026-07-06T19:54:29.022048,13.53275038,.0350676,98.5225,34.0093,45.6079,317.3214,0,U,24278,999,47582,.15885E-4,-.18E-6,0
TECHSAT 1B (GO-32),1998-043D,2026-07-06T20:56:57.716736,14.24432183,.0001941,99.0077,181.1287,128.3440,231.7913,0,U,25397,999,45413,.37954E-4,.41E-6,0
ISS (ZARYA),1998-067A,2026-07-06T11:25:32.035872,15.48920216,.0006688,51.6304,204.6205,262.9565,97.0662,0,U,25544,999,57474,.11937E-3,.6115E-4,0
PCSAT (NO-44),2001-043C,2026-07-06T17:11:00.627072,14.31962724,.0005989,67.0487,193.7609,265.9645,94.0772,0,U,26931,999,29324,.70598E-4,.106E-5,0
SAUDISAT 1C (SO-50),2002-058C,2026-07-06T02:29:05.783424,14.83086846,.0074778,64.5520,70.4578,258.9395,100.3295,0,U,27607,999,26726,.13138747E-3,.968E-5,0
CUTE-1 (CO-55),2003-031E,2026-07-06T13:35:06.559296,14.24347746,.0010595,98.6738,195.8812,125.0004,235.2171,0,U,27844,999,19443,.13471E-3,.268E-5,0
CUBESAT XI-IV (CO-57),2003-031J,2026-07-06T00:02:50.914752,14.23631104,.00101586,98.6770,195.0217,143.6881,216.4988,0,U,27848,999,19405,.13358001E-3,.261E-5,0
MOZHAETS 4 (RS22),2003-042A,2026-07-06T20:19:47.324928,14.73507842,.0010552,98.3476,12.7617,200.4320,272.9611,0,U,27939,999,21844,.30031E-3,.1899E-4,0
CUBESAT XI-V,2005-043F,2026-07-06T08:37:26.048928,14.72686551,.00148973,98.3006,343.3861,141.1916,219.0363,0,U,28895,999,10457,.25384291E-3,.1568E-4,0
CUTE-1.7+APD II (CO-65),2008-021C,2026-07-06T20:52:14.532960,15.09650542,.0007594,97.8290,169.7007,333.7345,26.3497,0,U,32785,999,98816,.22553E-3,.3564E-4,0
SEEDS II (CO-66),2008-021J,2026-07-06T12:29:58.809120,15.33455492,.000207,97.7528,186.3507,176.8550,183.2705,0,U,32791,999,99025,.44924E-3,.14454E-3,0
YUBILEINY (RS30),2008-025A,2026-07-06T19:34:26.827392,12.43180259,.0018505,82.5058,343.2286,268.4483,91.4477,0,U,32953,999,82213,.20098E-3,.38E-6,0
KKS-1 (KISEKI),2009-002H,2026-07-06T19:42:56.177856,14.83174932,.000678,98.1180,110.5748,218.7536,141.3192,0,U,33499,999,93910,.15632E-3,.122E-4,0
SWISSCUBE,2009-051B,2026-07-06T17:39:33.818112,14.62519591,.0007377,98.4019,95.9636,142.1539,218.0181,0,U,35932,999,89201,.18748E-3,.901E-5,0
BEESAT-1,2009-051C,2026-07-06T16:29:16.621152,14.61752775,.0005594,98.3946,95.5083,152.8546,207.2947,0,U,35933,999,89203,.17521E-3,.825E-5,0
ITUPSAT1,2009-051E,2026-07-06T16:40:46.178688,14.60470304,.0007469,98.4028,94.6875,168.0612,192.0766,0,U,35935,999,89158,.16401E-3,.747E-5,0
XIWANG-1 (HOPE-1),2009-072B,2026-07-06T20:26:23.011008,13.16439928,.0007295,100.4036,141.3705,183.8197,176.2861,0,U,36122,999,79559,.64798E-3,.203E-5,0
O/OREOS (USA 219),2010-062C,2026-07-06T16:24:39.825792,14.93829265,.0013447,71.9707,36.1728,21.9928,338.1817,0,U,37224,999,11955,.19618E-3,.2024E-4,0
JUGNU,2011-058B,2026-07-06T03:22:37.482240,14.13781484,.0018346,19.9587,193.2770,285.8681,133.6572,0,U,37839,999,76171,.70824E-4,.403E-5,0
SRMSAT,2011-058D,2026-07-06T08:57:33.674688,14.11579689,.0011875,19.9727,303.3445,55.1210,344.5933,0,U,37841,999,76053,.64430167E-4,.384E-5,0
STRAND-1,2013-009E,2026-07-06T11:31:48.067680,14.37175317,.00089035,98.3930,7.2406,165.5665,194.5778,0,U,39090,999,69983,.1140074E-3,.297E-5,0
ZACUBE-1 (TSHEPISOSAT),2013-066B,2026-07-06T20:52:51.678048,15.01302905,.0043443,97.8025,150.3054,181.9155,178.1909,0,U,39417,999,68368,.17519E-3,.2235E-4,0
GOMX-1,2013-066Q,2026-07-06T19:06:38.122848,14.69531142,.0129051,97.6474,27.0210,15.1594,345.3423,0,U,39430,999,67279,.3916E-3,.2589E-4,0
